{
  "norad_id": 44801,
  "name": "INMARSAT GX5",
  "history": [
    {
      "epoch": "2026-04-11T21:21:13.655232Z",
      "apogee_km": 35795.78573091842,
      "perigee_km": 35778.995417838305,
      "latitude_deg": -0.0026905708526656627,
      "longitude_deg": 11.034487809045004,
      "height_km": 35794.16851748565,
      "semi_major_axis_km": 42165.527574378364,
      "eccentricity": 0.0001991,
      "inclination_deg": 0.0194,
      "raan_deg": 349.3577,
      "arg_perigee_deg": 32.3031,
      "mean_anomaly_deg": 149.771,
      "mean_motion_rev_day": 1.00268947
    },
    {
      "epoch": "2026-04-13T04:18:38.780064Z",
      "apogee_km": 35795.362736404895,
      "perigee_km": 35779.2530065373,
      "latitude_deg": 0.0014505722787781607,
      "longitude_deg": 10.99310649494967,
      "height_km": 35788.78379456919,
      "semi_major_axis_km": 42165.444871471096,
      "eccentricity": 0.00019103,
      "inclination_deg": 0.0195,
      "raan_deg": 352.4929,
      "arg_perigee_deg": 28.7929,
      "mean_anomaly_deg": 255.7658,
      "mean_motion_rev_day": 1.00269242
    },
    {
      "epoch": "2026-04-14T19:15:55.383840Z",
      "apogee_km": 35795.08924117081,
      "perigee_km": 35779.176068403096,
      "latitude_deg": -0.0016460398622717529,
      "longitude_deg": 11.022117571808721,
      "height_km": 35790.95823794109,
      "semi_major_axis_km": 42165.26965478696,
      "eccentricity": 0.0001887,
      "inclination_deg": 0.0218,
      "raan_deg": 357.8619,
      "arg_perigee_deg": 22.287,
      "mean_anomaly_deg": 122.8147,
      "mean_motion_rev_day": 1.00269867
    },
    {
      "epoch": "2026-04-15T20:02:48.331968Z",
      "apogee_km": 35794.8681195045,
      "perigee_km": 35779.08993308746,
      "latitude_deg": -0.003086683459426266,
      "longitude_deg": 11.013139448313275,
      "height_km": 35792.19188434012,
      "semi_major_axis_km": 42165.11602629598,
      "eccentricity": 0.0001871,
      "inclination_deg": 0.0241,
      "raan_deg": 2.3377,
      "arg_perigee_deg": 17.1579,
      "mean_anomaly_deg": 136.2028,
      "mean_motion_rev_day": 1.00270415
    },
    {
      "epoch": "2026-04-16T19:10:46.007904Z",
      "apogee_km": 35794.662193973876,
      "perigee_km": 35778.97683015139,
      "latitude_deg": -0.005981355677390668,
      "longitude_deg": 11.012864586157276,
      "height_km": 35790.70650347484,
      "semi_major_axis_km": 42164.956512062636,
      "eccentricity": 0.000186,
      "inclination_deg": 0.0267,
      "raan_deg": 6.6902,
      "arg_perigee_deg": 13.014,
      "mean_anomaly_deg": 123.9327,
      "mean_motion_rev_day": 1.00270984
    },
    {
      "epoch": "2026-04-17T22:33:29.049120Z",
      "apogee_km": 35794.72317036797,
      "perigee_km": 35779.26796267704,
      "latitude_deg": 0.0017714733146187993,
      "longitude_deg": 11.006842450701068,
      "height_km": 35794.19039552794,
      "semi_major_axis_km": 42165.13256652251,
      "eccentricity": 0.00018327,
      "inclination_deg": 0.0637,
      "raan_deg": 40.3257,
      "arg_perigee_deg": 342.447,
      "mean_anomaly_deg": 172.6772,
      "mean_motion_rev_day": 1.00270356
    },
    {
      "epoch": "2026-04-18T19:22:38.605728Z",
      "apogee_km": 35794.20969253396,
      "perigee_km": 35778.70998673571,
      "latitude_deg": 0.028982613365941882,
      "longitude_deg": 11.024361660569344,
      "height_km": 35790.70379438951,
      "semi_major_axis_km": 42164.59683963483,
      "eccentricity": 0.0001838,
      "inclination_deg": 0.0639,
      "raan_deg": 39.8341,
      "arg_perigee_deg": 341.0278,
      "mean_anomaly_deg": 127.7353,
      "mean_motion_rev_day": 1.00272267
    },
    {
      "epoch": "2026-04-19T19:44:33.287136Z",
      "apogee_km": 35794.098908516586,
      "perigee_km": 35778.624537485244,
      "latitude_deg": 0.02875872260404132,
      "longitude_deg": 11.028160453362856,
      "height_km": 35791.16165291576,
      "semi_major_axis_km": 42164.49872300092,
      "eccentricity": 0.0001835,
      "inclination_deg": 0.0641,
      "raan_deg": 40.7726,
      "arg_perigee_deg": 341.0952,
      "mean_anomaly_deg": 133.2106,
      "mean_motion_rev_day": 1.00272617
    },
    {
      "epoch": "2026-04-20T13:52:33.291840Z",
      "apogee_km": 35791.768700590714,
      "perigee_km": 35780.13394205933,
      "latitude_deg": 0.03822912856744547,
      "longitude_deg": 11.022475955977303,
      "height_km": 35780.58554028059,
      "semi_major_axis_km": 42164.08832132503,
      "eccentricity": 0.00013797,
      "inclination_deg": 0.0457,
      "raan_deg": 349.1774,
      "arg_perigee_deg": 44.7468,
      "mean_anomaly_deg": 33.8973,
      "mean_motion_rev_day": 1.00274081
    },
    {
      "epoch": "2026-04-21T20:10:38.786016Z",
      "apogee_km": 35791.88929949736,
      "perigee_km": 35779.89784920201,
      "latitude_deg": -0.011862119917018877,
      "longitude_deg": 11.041939481256863,
      "height_km": 35789.110096355835,
      "semi_major_axis_km": 42164.03057434969,
      "eccentricity": 0.0001422,
      "inclination_deg": 0.0455,
      "raan_deg": 355.3313,
      "arg_perigee_deg": 40.0864,
      "mean_anomaly_deg": 128.1819,
      "mean_motion_rev_day": 1.00274287
    },
    {
      "epoch": "2026-04-22T19:56:47.732064Z",
      "apogee_km": 35791.899440371664,
      "perigee_km": 35779.65503967636,
      "latitude_deg": -0.0060779566621784915,
      "longitude_deg": 11.056585764321902,
      "height_km": 35788.64750212252,
      "semi_major_axis_km": 42163.914240024016,
      "eccentricity": 0.0001452,
      "inclination_deg": 0.0454,
      "raan_deg": 0.8247,
      "arg_perigee_deg": 37.0049,
      "mean_anomaly_deg": 123.2936,
      "mean_motion_rev_day": 1.00274702
    },
    {
      "epoch": "2026-04-23T06:54:12.769056Z",
      "apogee_km": 35791.92206635718,
      "perigee_km": 35779.52589122942,
      "latitude_deg": -0.005190233966486162,
      "longitude_deg": 11.033101807831347,
      "height_km": 35783.432275215506,
      "semi_major_axis_km": 42163.86097879331,
      "eccentricity": 0.000147,
      "inclination_deg": 0.0454,
      "raan_deg": 3.3371,
      "arg_perigee_deg": 36.0017,
      "mean_anomaly_deg": 286.5941,
      "mean_motion_rev_day": 1.00274892
    },
    {
      "epoch": "2026-04-24T18:50:18.880800Z",
      "apogee_km": 35794.4759063669,
      "perigee_km": 35780.434764119265,
      "latitude_deg": 0.007368133869832975,
      "longitude_deg": 11.050219817251415,
      "height_km": 35790.4625378728,
      "semi_major_axis_km": 42165.592335243084,
      "eccentricity": 0.0001665,
      "inclination_deg": 0.046,
      "raan_deg": 11.7225,
      "arg_perigee_deg": 14.7435,
      "mean_anomaly_deg": 119.95,
      "mean_motion_rev_day": 1.00268716
    },
    {
      "epoch": "2026-04-25T18:47:48.964704Z",
      "apogee_km": 35794.46387643264,
      "perigee_km": 35780.17821924603,
      "latitude_deg": 0.0074759394109752825,
      "longitude_deg": 11.041118521518063,
      "height_km": 35790.059781751894,
      "semi_major_axis_km": 42165.45804783933,
      "eccentricity": 0.0001694,
      "inclination_deg": 0.0467,
      "raan_deg": 17.9792,
      "arg_perigee_deg": 11.8735,
      "mean_anomaly_deg": 116.9128,
      "mean_motion_rev_day": 1.00269195
    },
    {
      "epoch": "2026-04-26T22:14:47.388768Z",
      "apogee_km": 35794.454434035026,
      "perigee_km": 35779.873672930735,
      "latitude_deg": -0.019270553412091336,
      "longitude_deg": 11.017913670625369,
      "height_km": 35793.76945088107,
      "semi_major_axis_km": 42165.301053482886,
      "eccentricity": 0.0001729,
      "inclination_deg": 0.0478,
      "raan_deg": 24.1187,
      "arg_perigee_deg": 9.3357,
      "mean_anomaly_deg": 166.1729,
      "mean_motion_rev_day": 1.00269755
    },
    {
      "epoch": "2026-04-27T18:42:35.864064Z",
      "apogee_km": 35794.49744673383,
      "perigee_km": 35779.60470230591,
      "latitude_deg": 0.004379987186385753,
      "longitude_deg": 11.024811606272438,
      "height_km": 35789.24855061169,
      "semi_major_axis_km": 42165.18807451987,
      "eccentricity": 0.0001766,
      "inclination_deg": 0.0486,
      "raan_deg": 27.7359,
      "arg_perigee_deg": 8.5298,
      "mean_anomaly_deg": 111.1486,
      "mean_motion_rev_day": 1.00270158
    },
    {
      "epoch": "2026-04-28T21:11:43.605312Z",
      "apogee_km": 35794.53885133996,
      "perigee_km": 35779.27510541978,
      "latitude_deg": -0.014575499227186695,
      "longitude_deg": 11.009662800639923,
      "height_km": 35792.76372599624,
      "semi_major_axis_km": 42165.04397837987,
      "eccentricity": 0.000181,
      "inclination_deg": 0.05,
      "raan_deg": 32.0776,
      "arg_perigee_deg": 7.7025,
      "mean_anomaly_deg": 145.9993,
      "mean_motion_rev_day": 1.00270672
    },
    {
      "epoch": "2026-04-29T20:43:38.801856Z",
      "apogee_km": 35794.58527108055,
      "perigee_km": 35778.975818605446,
      "latitude_deg": -0.010533311651418714,
      "longitude_deg": 11.007078530912667,
      "height_km": 35792.0328847448,
      "semi_major_axis_km": 42164.917544843,
      "eccentricity": 0.0001851,
      "inclination_deg": 0.0513,
      "raan_deg": 35.3551,
      "arg_perigee_deg": 7.2037,
      "mean_anomaly_deg": 137.1642,
      "mean_motion_rev_day": 1.00271123
    },
    {
      "epoch": "2026-04-30T06:36:16.363296Z",
      "apogee_km": 35794.543509838506,
      "perigee_km": 35778.920582559505,
      "latitude_deg": -0.007159139020762945,
      "longitude_deg": 10.970397658965126,
      "height_km": 35784.2184897692,
      "semi_major_axis_km": 42164.869046199005,
      "eccentricity": 0.00018526,
      "inclination_deg": 0.0518,
      "raan_deg": 36.6874,
      "arg_perigee_deg": 6.8705,
      "mean_anomaly_deg": 284.7267,
      "mean_motion_rev_day": 1.00271296
    }
  ]
}